COSMOS 1933             
1 18958U 88020A   25357.96521876  .00004220  00000+0  21085-3 0  9991
2 18958  82.5142 325.7862 0006278  98.3623 261.8322 15.17198466 38746
SL-3 R/B                
1 19046U 88032B   25358.12763792  .00004968  00000+0  23940-3 0  9998
2 19046  97.5096 336.7700 0027859 134.3204 226.0321 15.18850135 40638
SL-16 R/B               
1 19120U 88039B   25358.09163587  .00000036  00000+0  39636-4 0  9992
2 19120  71.0131 228.3964 0019535  96.8324 263.5024 14.19599441947657
COSMOS 1953             
1 19210U 88050A   25351.75027580  .00004793  00000+0  17925-3 0  9993
2 19210  82.5093 240.5536 0013540  56.0210 304.2313 15.26995692 25270
SL-8 R/B                
1 19257U 88053B   25358.16094021  .00000259  00000+0  92337-4 0  9997
2 19257  74.0469 251.6707 0018949  91.5172  19.6799 14.38865919965735
COSMOS 1975             
1 19573U 88093A   25358.05536367  .00007287  00000+0  27630-3 0  9995
2 19573  82.5189 193.4994 0013045  77.3931 282.8766 15.26621750  7867
SL-14 R/B               
1 19574U 88093B   25358.11189872  .00000552  00000+0  60896-4 0  9998
2 19574  82.5315 112.9957 0019269 289.6070 243.0881 14.85560881989812
SL-16 R/B               
1 19650U 88102B   25358.11333787  .00000176  00000+0  11297-3 0  9992
2 19650  71.0006 310.5116 0012394 132.4323 227.7851 14.16141762916192
INTERCOSMOS 24          
1 20261U 89080A   25357.86657417  .00000731  00000+0  20609-3 0  9992
2 20261  82.6052 153.7188 1188998 108.7198 264.6512 12.59457357657256
SL-14 R/B               
1 20262U 89080C   25358.10502494  .00000329  00000+0  95419-4 0  9990
2 20262  82.5915 221.7247 1230455 357.6173   1.9363 12.50422101650709
DELTA 1 R/B             
1 20323U 89089B   25358.15929537  .00000350  00000+0  95414-4 0  9992
2 20323  97.0743 212.5865 0069213   2.5534 357.6004 14.50581101884787
ARIANE 40 R/B           
1 20443U 90005H   25358.13628764  .00000276  00000+0  10149-3 0  9999
2 20443  98.3227  55.9914 0011186  74.8956 285.3469 14.39806519881937
